[{"OBJECT_NAME":"COSMOS 2550","OBJECT_ID":"2021-056A","EPOCH":"2026-03-08T11:22:34.326624","MEAN_MOTION":15.33829151,"ECCENTRICITY":0.00083692,"INCLINATION":67.1451,"RA_OF_ASC_NODE":44.6088,"ARG_OF_PERICENTER":269.6014,"MEAN_ANOMALY":90.4182,"EPHEMERIS_TYPE":0,"CLASSIFICATION_TYPE":"U","NORAD_CAT_ID":48865,"ELEMENT_SET_NO":999,"REV_AT_EPOCH":26327,"BSTAR":-1.3338e-8,"MEAN_MOTION_DOT":-1.92e-6,"MEAN_MOTION_DDOT":0},{"OBJECT_NAME":"STARLINK-34295","OBJECT_ID":"2025-130T","EPOCH":"2026-03-09T07:40:00.163776","MEAN_MOTION":15.30204072,"ECCENTRICITY":9.471e-5,"INCLINATION":53.1599,"RA_OF_ASC_NODE":90.4461,"ARG_OF_PERICENTER":66.4686,"MEAN_ANOMALY":293.6414,"EPHEMERIS_TYPE":0,"CLASSIFICATION_TYPE":"U","NORAD_CAT_ID":64455,"ELEMENT_SET_NO":999,"REV_AT_EPOCH":4064,"BSTAR":0.00063794647,"MEAN_MOTION_DOT":0.00018585,"MEAN_MOTION_DDOT":0}]
