COSMOS 2550             
1 48865U 21056A   26067.47400841 -.00000192  00000+0 -13338-7 0  9992
2 48865  67.1451  44.6088 0008369 269.6014  90.4182 15.33829151263273
STARLINK-34295          
1 64455U 25130T   26068.31944634  .00018585  00000+0  63795-3 0  9990
2 64455  53.1599  90.4461 0000947  66.4686 293.6414 15.30204072 40645
